ONEWEB-0205             
1 48226U 21031S   25281.18788953 -.00000159  00000+0 -46219-3 0  9997
2 48226  87.9057 339.8861 0002074  97.0458 263.0907 13.14502181215162
ONEWEB-0206             
1 48227U 21031T   25281.16093213  .00000296  00000+0  76422-3 0  9993
2 48227  87.9066 339.8762 0001607 102.2102 257.9208 13.14502859215112
ONEWEB-0182             
1 48228U 21031U   25281.15617681  .00000237  00000+0  60383-3 0  9998
2 48228  87.9049 339.9180 0001897  91.0559 269.0788 13.14501744215323
ONEWEB-0186             
1 48229U 21031V   25281.16727133  .00000190  00000+0  47738-3 0  9991
2 48229  87.9067 339.8813 0002015  98.2424 261.8934 13.14501059215275
ONEWEB-0181             
1 48230U 21031W   25281.14507756  .00000160  00000+0  39758-3 0  9998
2 48230  87.9043 339.9514 0002060 101.7575 258.3785 13.14502324215122
ONEWEB-0188             
1 48231U 21031X   25281.18312725 -.00000046  00000+0 -15966-3 0  9993
2 48231  87.9054 339.9388 0001886  96.9626 263.1718 13.14502587215032
ONEWEB-0220             
1 48232U 21031Y   25281.14666397  .00000254  00000+0  64963-3 0  9997
2 48232  87.9061 339.8860 0002108  95.4734 264.6636 13.14503458215298
ONEWEB-0165             
1 48233U 21031Z   25281.17520441  .00000091  00000+0  21048-3 0  9996
2 48233  87.9047 339.9170 0002075  98.6843 261.4522 13.14501965215253
